    PJ99XC0N  2008 11 14.2869  3.297600  0.210890  162.0035  285.4736    5.0294  20050130  13.5  2.0  P/1999 XN120 (Catalina)
    CK00A010  2000 07 18.5100  9.760423  1.004715   14.5535  111.8535   24.5391  20050130   3.5  4.0  C/2000 A1 (Montani)
    CK00B040  2000 06 17.4316  6.845598  0.620480  126.4523    0.6406   15.8952  20050130  11.5  2.0  C/2000 B4 (LINEAR)
    CK00C54T  2001 06 19.5673  3.150271  0.997982  272.5483   18.9669   49.2529  20050130  11.0  2.0  C/2000 CT54 (LINEAR)
    PK00G010  2005 07 13.8985  0.998522  0.673095  343.3418  190.9823   10.3950  20050130  19.5  2.0  P/2000 G1 (LINEAR)
    CK00S74V  2002 04 29.7354  3.545460  1.002928   76.2519   24.1799   75.2648  20050130   5.5  4.0  C/2000 SV74 (LINEAR)
    CK00Y010  2001 02  4.2018  7.975333  1.003428  181.8666  239.4515  137.9994  20050130  11.0  2.0  C/2000 Y1 (Tubbiolo)
    PK00Y030  2000 10 21.4607  4.039307  0.194565   87.5609  354.9165    2.2519  20050130   9.0  4.0  P/2000 Y3 (Scotti)
    CK01B020  2000 08 31.7429  5.324403  0.998373  304.9673  145.1411  150.6494  20050130   4.0  4.0  C/2001 B2 (NEAT)
    CK01C010  2002 03 28.8040  5.106051  1.000996  219.9965   33.6642   68.9521  20050130   6.0  4.0  C/2001 C1 (LINEAR)
    CK01G010  2001 10 11.3283  8.242339  1.004890  343.4203  203.8769   45.3258  20050130   3.5  4.0  C/2001 G1 (LONEOS)
    CK01H50T  2003 07  9.1132  2.791763  0.998116  324.0863   42.9242  163.2163  20050130   4.5  4.0  C/2001 HT50 (LINEAR-NEAT)
    CK01K050  2002 10 11.9052  5.184740  0.999765   47.0787  237.4220   72.5943  20050130   4.0  4.0  C/2001 K5 (LINEAR)
    PK01Q020  2007 02 25.2864  0.942680  0.696840  181.8255  214.0910   13.9643  20050130  11.0  4.0  P/2001 Q2 (Petriew)
    CK01Q040  2004 05 15.9605  0.962064  1.000658    1.2060  210.2768   99.6438  20050130   3.5  4.0  C/2001 Q4 (NEAT)
    CK01R14X  2003 01 18.5039  2.058838  1.000948  121.4943   14.1605   30.5771  20050130   6.5  4.0  C/2001 RX14 (LINEAR)
    CK01T040  2002 05 18.1637  8.562746  0.381649  321.7747   64.4839   15.3776  20050130   5.5  4.0  C/2001 T4 (NEAT)
    PK01YC7X  2003 03  3.4693  3.424425  0.177125  115.3891   31.0619    7.9186  20050130  14.5  2.0  P/2001 YX127 (LINEAR)
    CK02A010  2001 11 20.2705  4.708305  0.710616   19.0517   81.1138   14.0074  20050130  12.5  2.0  C/2002 A1 (LINEAR)
    CK02A020  2001 11 27.3966  4.703223  0.708243   19.4068   81.1216   13.9760  20050130  11.0  2.0  C/2002 A2 (LINEAR)
    CK02A030  2002 04 20.2577  5.163150  0.971276  329.5949  136.4230   48.5415  20050130   6.5  4.0  C/2002 A3 (LINEAR)
    CK02C10E  2003 06 22.0441  2.045664  0.791493  126.1427  147.4382  145.4557  20050130  13.0  2.0  C/2002 CE10 (LINEAR)
    CK02J040  2003 10  3.1397  3.633476  1.000259  230.7094   70.8633   46.5231  20050130   5.5  4.0  C/2002 J4 (NEAT)
    CK02J050  2003 09 19.5462  5.727852  1.000228   74.8650  314.1074  117.2282  20050130  11.0  2.0  C/2002 J5 (LINEAR)
    CK02K020  2002 01  4.8769  5.236221  0.990697   26.6172  294.5398  130.8963  20050130  12.0  2.0  C/2002 K2 (LINEAR)
    CK02L090  2004 04  5.9038  7.032907  0.998301  231.4253  110.4452   68.4400  20050130   8.5  2.0  C/2002 L9 (NEAT)
    PK02L11Z  2003 03 15.4005  2.369903  0.351421  107.9065  231.1395   11.5210  20050130  11.0  4.0  P/2002 LZ11 (LINEAR)
    CK02O070  2003 09 22.6145  0.902974  1.000449  252.0654   12.8040   98.7571  20050130   6.5  4.0  C/2002 O7 (LINEAR)
    CK02R030  2003 06 13.2584  3.868360  1.002875   45.0488   54.3221  161.0958  20050130   8.0  4.0  C/2002 R3 (LONEOS)
    PK02T050  2003 06 29.3527  3.937314  0.438114  327.0106  123.3045   30.8679  20050130   8.0  4.0  P/2002 T5 (LINEAR)
    CK02T070  2004 04 23.0889  0.614188  1.000644  157.8072   94.9480  160.5756  20050130   4.0  4.0  C/2002 T7 (LINEAR)
    CK02V020  2003 05 13.9329  6.811918  1.000247  314.6823   20.2290  166.7798  20050130   6.0  4.0  C/2002 V2 (LINEAR)
    CK02V94Q  2006 02  6.2480  6.797090  0.967790  100.0089   35.0130   70.5149  20050130   9.5  2.0  C/2002 VQ94 (LINEAR)
    CK02X010  2003 07 12.9856  2.486271  0.998462  207.3493  281.9054  164.0872  20050130   8.0  4.0  C/2002 X1 (LINEAR)
    CK02Y010  2003 04 13.2677  0.712569  0.997025  128.7674  166.2190  103.7835  20050130   6.5  4.0  C/2002 Y1 (Juels-Holvorcem)
    CK03A020  2003 11  9.2090 11.427941  1.006216  346.7932  154.5444    8.0618  20050130   3.5  4.0  C/2003 A2 (Gleason)
    PK03C07P  2003 04 29.5050  3.018196  0.247968   42.6776  133.1264   12.3388  20050130  14.5  2.0  P/2003 CP7 (LINEAR-NEAT)
    CK03E010  2004 02 13.7518  3.245146  0.764047  103.8868  137.0720   33.5354  20050130  12.5  2.0  C/2003 E1 (NEAT)
    CK03F010  2003 06 28.5815  4.008503  0.806305  121.2095   87.4921   70.2046  20050130   7.0  4.0  C/2003 F1 (LINEAR)
    CK03G010  2003 02  3.8251  4.916932  1.001715   11.4510  246.0659   66.8386  20050130   5.0  4.0  C/2003 G1 (LINEAR)
    CK03H010  2004 02 22.5855  2.239734  0.999085  196.1377   19.0055  138.6728  20050130   6.5  4.0  C/2003 H1 (LINEAR)
    PK03H15T  2003 04 17.9859  2.672543  0.420105  124.1291   81.4633   27.6625  20050130  14.0  2.0  P/2003 HT15 (LINEAR)
    CK03J010  2003 10 10.3295  5.125123  0.990402  195.9987  122.0225   98.3019  20050130   7.0  4.0  C/2003 J1 (NEAT)
    CK03K040  2004 10 13.7148  1.023637  1.000324  198.4404   18.6754  134.2528  20050130   3.5  4.0  C/2003 K4 (LINEAR)
    PK03L010  2003 03  9.7198  5.011328  0.252904  355.4014  226.0240    9.0202  20050130   8.5  4.0  P/2003 L1 (Scotti)
    CK03O010  2004 03 17.2873  6.847634  1.000538   81.6824  347.6431  117.9817  20050130   6.0  4.0  C/2003 O1 (LINEAR)
    PK03Q29X  2002 10 26.1832  4.237233  0.471840   37.2285  264.5468   11.3977  20050130   8.5  4.0  P/2003 QX29 (NEAT)
    PK03S010  2004 03 27.6678  2.595845  0.430290  175.8371  241.0643    5.9453  20050130  11.5  4.0  P/2003 S1 (NEAT)
    CK03S030  2003 04 10.8716  8.129459  1.003163  154.5806  226.3886  151.5077  20050130   5.5  4.0  C/2003 S3 (LINEAR)
    CK03S040  2004 05 26.5560  3.858751  0.901715  154.4404  224.5517   40.6090  20050130   9.0  4.0  C/2003 S4 (LINEAR)
    PK03SL5Q  2004 03 24.2036  2.304283  0.581055  137.3002  257.6393    5.5463  20050130  14.0  2.0  P/2003 SQ215 (NEAT-LONEOS)
    CK03T030  2004 04 28.9994  1.481355  0.999771   43.7830  347.0586   50.4433  20050130   5.0  4.0  C/2003 T3 (Tabur)
    CK03T040  2005 04  3.6609  0.849765  1.000328  181.6804   93.9038   86.7616  20050130   6.0  4.0  C/2003 T4 (LINEAR)
    CK03W42T  2006 04 10.4930  5.191574  1.003320   92.4326   48.4581   31.4112  20050130   9.0  2.0  C/2003 WT42 (LINEAR)
    PK04A010  2004 08 27.0961  5.462816  0.309379   20.6118  125.2270   10.5699  20050130   6.5  4.0  P/2004 A1 (LONEOS)
    CK04B010  2006 02  7.8853  1.601956  1.001315  327.8945  272.7944  114.0926  20050130  10.5  2.0  C/2004 B1 (LINEAR)
    CK04C010  2003 03 19.3321  4.349795  0.625803  315.9683  151.9549   28.8625            13.5  2.0  C/2004 C1 (Larsen)
    CK04D010  2006 02 10.6227  4.974825  1.002066   75.5222   62.2520   45.5390  20050130  11.5  2.0  C/2004 D1 (NEAT)
    PK04D29O  2004 10  9.9910  4.098610  0.449356   41.5705  147.8722   14.5464            13.5  2.0  P/2004 DO29 (Spacewatch-LINEAR)
    PK04F010  2003 10 19.3130  2.449477  0.451288   26.2721  111.8666   18.2691  20050130  16.0  2.0  P/2004 F1 (NEAT)
    PK04F030  2005 01  4.3111  2.864081  0.286595  176.1280   78.8312   15.9880  20050130   9.0  4.0  P/2004 F3 (NEAT)
    CK04H060  2004 05 12.6881  0.776091  1.000488  269.0353  317.2425  107.6567  20050130   7.5  4.0  C/2004 H6 (SWAN)
    CK04K010  2005 07  5.0780  3.399319  0.998044   97.7432  326.9219  153.7472  20050130   7.0  4.0  C/2004 K1 (Catalina)
    CK04L010  2005 03 30.1052  2.047429  0.997664  243.5782   66.1745  159.3610  20050130  10.0  4.0  C/2004 L1 (LINEAR)
    CK04L020  2005 11 15.0895  3.778992  0.994934  257.3015   99.1858   62.5222  20050130   7.0  4.0  C/2004 L2 (LINEAR)
    CK04P010  2003 08  8.6630  6.013454  0.999534   16.5803  284.1765   28.8143  20050130   7.0  4.0  C/2004 P1 (NEAT)
    CK04Q010  2004 12  6.8651  2.046698  0.988931   32.9686   22.1301   56.0869  20050130   9.5  4.0  C/2004 Q1 (Tucker)
    CK04Q020  2005 01 24.9127  1.205035  0.999473   19.5064   93.6239   38.5894  20050130   5.5  4.0  C/2004 Q2 (Machholz)
    CK04R020  2004 10  7.897   0.11283   1.00000     5.354   182.464    63.174             11.5  4.0  C/2004 R2 (ASAS)
    CK04RB3G  2005 03  3.7223  1.942282  0.997190  125.3097    8.7721   21.6180  20050130  13.0  4.0  C/2004 RG113 (LINEAR)
    PK04T010  2004 11  7.7630  1.709565  0.507591  336.5203   51.4600   11.0382  20050130  12.5  4.0  P/2004 T1 (LINEAR-NEAT)
    CK04T030  2003 04 15.0970  8.863901  0.998417  259.6749   50.3555   71.9640  20050130   2.5  4.0  C/2004 T3 (Siding Spring)
    CK04U010  2004 12  8.7478  2.659336  0.999015   20.1245  112.5459  130.6230  20050130  11.0  4.0  C/2004 U1 (LINEAR)
    PK04V030  2004 11 11.0757  3.937792  0.445380  322.3247  356.0953   50.4523             8.5  4.0  P/2004 V3 (Siding Spring)
    PK04V05a  2005 02 28.7022  4.410859  0.445211   87.6837   47.8603   19.3582  20050130   8.0  4.0  P/2004 V5-A (LINEAR-Hill)
    PK04V05b  2005 02 28.1610  4.411140  0.445316   87.5830   47.8619   19.3583  20050130   8.5  4.0  P/2004 V5-B (LINEAR-Hill)
    PK04V08R  2005 09  2.4760  2.375812  0.509945   63.0881   71.2159   20.1159  20050130  10.0  4.0  P/2004 VR8 (LONEOS)
    PK04W09R  2005 01 11.4920  1.917238  0.683694   70.6308   25.4518    5.0486  20050130  14.5  4.0  P/2004 WR9 (LINEAR)
    CK04X020  2004 08 24.1439  3.791998  0.996768  162.1763  307.3384   72.1040  20050130  10.0  4.0  C/2004 X2 (LINEAR)
    CK04X030  2005 06 17.1579  4.402390  1.006476  202.1213  343.0480   81.0802  20050130   8.5  4.0  C/2004 X3 (LINEAR)
    CK05A010  2005 04 10.2271  0.906857  1.000526  271.8671  355.8591   74.8861  20050130  11.0  4.0  C/2005 A1 (LINEAR)
